     2.11           N: GPS NAV DATA                         RINEX VERSION / TYPE
teqc  2018Dec12     gpsops              20220615 01:03:39UTCPGM / RUN BY / DATE
Linux 2.6.32-573.12.1.x86_64|x86_64|gcc -static|Linux 64|=+ COMMENT
CHPI                                    MARKER NAME         COMMENT
41609M003                               MARKER NUMBER       COMMENT
4164613.9484 -4162456.9866 -2445028.7316                    COMMENT
This data is provided as a public service by NASA/JPL.      COMMENT
No warranty is expressed or implied regarding suitability   COMMENT
for use.  For further information, contact:                 COMMENT
ggnops at jpl dot nasa dot gov                              COMMENT
                                                            END OF HEADER
24 22  6 14 20  0  0.0 2.206987701356D-04-8.412825991400D-12 0.000000000000D+00
    1.200000000000D+01-2.421875000000D+01 5.251290165885D-09-2.821994274612D+00
   -1.212581992149D-06 1.254584814887D-02 6.504356861115D-06 5.153675758362D+03
    2.448000000000D+05 4.097819328308D-08-9.906532136656D-01-1.471489667892D-07
    9.339321653834D-01 2.383750000000D+02 8.176095041234D-01-8.101408884770D-09
   -4.889489381144D-10 1.000000000000D+00 2.214000000000D+03 0.000000000000D+00
    2.000000000000D+00 0.000000000000D+00 2.793967723846D-09 1.200000000000D+01
    2.439060000000D+05 4.000000000000D+00
11 22  6 14 20  0  0.0-1.510651782155D-05 2.614797267597D-12 0.000000000000D+00
    1.030000000000D+02-1.318750000000D+02 4.694838416008D-09-9.234644584128D-01
   -6.761401891708D-06 4.589996533468D-04 1.827254891396D-06 5.153590467453D+03
    2.448000000000D+05 6.891787052155D-08 2.285403072417D+00 1.676380634308D-08
    9.631014411094D-01 3.459375000000D+02 2.806290713615D+00-8.355348033783D-09
   -2.035799084918D-10 1.000000000000D+00 2.214000000000D+03 0.000000000000D+00
    2.000000000000D+00 0.000000000000D+00-8.381903171539D-09 6.150000000000D+02
    2.447580000000D+05 4.000000000000D+00
17 22  6 14 22  0  0.0 6.250739097595D-04 4.661160346586D-12 0.000000000000D+00
    9.200000000000D+01 1.202500000000D+02 4.294107438240D-09 1.092011102188D-01
    6.027519702911D-06 1.351870654617D-02 9.015202522278D-07 5.153568561554D+03
    2.520000000000D+05-2.346932888031D-07 1.244984422713D+00-1.098960638046D-07
    9.784303166014D-01 3.699375000000D+02-1.490311934205D+00-8.536069847286D-09
    3.710868858297D-10 1.000000000000D+00 2.214000000000D+03 0.000000000000D+00
    2.800000000000D+00 0.000000000000D+00-1.117587089539D-08 9.200000000000D+01
    2.448180000000D+05 4.000000000000D+00
19 22  6 14 22  0  0.0 1.707449555397D-04 5.002220859751D-12 0.000000000000D+00
    4.500000000000D+01 1.261875000000D+02 4.257320191617D-09 2.432899207172D+00
    6.280839443207D-06 9.285456617363D-03 1.322478055954D-07 5.153710857391D+03
    2.520000000000D+05 1.043081283569D-07 1.289784779159D+00-9.313225746155D-09
    9.772518556281D-01 3.836250000000D+02 2.086682786508D+00-8.217485148384D-09
    3.017982853957D-10 1.000000000000D+00 2.214000000000D+03 0.000000000000D+00
    2.000000000000D+00 0.000000000000D+00-1.583248376846D-08 4.500000000000D+01
    2.448180000000D+05 4.000000000000D+00
13 22  6 14 22  0  0.0 3.300332464278D-04 6.934897101019D-12 0.000000000000D+00
    7.000000000000D+00 9.843750000000D+00 4.809128890950D-09-3.133880342581D-01
    5.271285772324D-07 5.994479754008D-03 6.129965186119D-06 5.153664304733D+03
    2.520000000000D+05-2.048909664154D-08-1.823297611115D+00 3.911554813385D-08
    9.683263920067D-01 2.612187500000D+02 9.163691272524D-01-8.048906697843D-09
    2.900120801672D-10 1.000000000000D+00 2.214000000000D+03 0.000000000000D+00
    2.000000000000D+00 0.000000000000D+00-1.164153218269D-08 7.000000000000D+00
    2.448180000000D+05 4.000000000000D+00
28 22  6 14 22  0  0.0 3.382689319551D-04-7.048583938740D-12 0.000000000000D+00
    2.000000000000D+01 1.282187500000D+02 3.921949079207D-09 5.878849882495D-01
    6.662681698799D-06 1.654170011170D-02 1.171603798866D-05 5.153685331345D+03
    2.520000000000D+05-1.415610313416D-07 2.289279686831D-01-2.179294824600D-07
    9.685044788762D-01 1.600937500000D+02-1.275595614866D+00-7.923187175406D-09
   -2.707255625206D-10 1.000000000000D+00 2.214000000000D+03 0.000000000000D+00
    2.000000000000D+00 6.300000000000D+01-1.117587089539D-08 2.000000000000D+01
    2.448180000000D+05 4.000000000000D+00
30 22  6 14 22  0  0.0-5.313842557371D-04-1.136868377216D-12 0.000000000000D+00
    8.300000000000D+01-1.515625000000D+01 5.273076787671D-09-2.791581547777D+00
   -8.828938007355D-07 5.896519403905D-03 7.029622793198D-06 5.153746730804D+03
    2.520000000000D+05-5.587935447693D-09-8.945962731713D-01-7.823109626770D-08
    9.356514920403D-01 2.296562500000D+02-2.674223351177D+00-8.133553080847D-09
   -6.650277010731D-10 1.000000000000D+00 2.214000000000D+03 0.000000000000D+00
    2.000000000000D+00 0.000000000000D+00 3.725290298462D-09 8.300000000000D+01
    2.448180000000D+05 4.000000000000D+00
15 22  6 14 22  0  0.0-5.321344360709D-05 2.955857780762D-12 0.000000000000D+00
    4.200000000000D+01 1.646875000000D+01 5.525587305748D-09-8.619442005786D-01
    9.797513484955D-07 1.410995854530D-02 7.515773177147D-06 5.153563081741D+03
    2.520000000000D+05-2.980232238770D-08-2.087349665029D+00 2.719461917877D-07
    9.301764260389D-01 2.179375000000D+02 1.094320473446D+00-8.485353449031D-09
    4.696624204679D-10 1.000000000000D+00 2.214000000000D+03 0.000000000000D+00
    2.000000000000D+00 0.000000000000D+00-1.071020960808D-08 4.200000000000D+01
    2.448180000000D+05 4.000000000000D+00
14 22  6 14 22  0  0.0-1.114886254072D-04-6.821210263297D-13 0.000000000000D+00
    6.000000000000D+00 1.376250000000D+02 4.155887395106D-09 2.865901474220D+00
    7.182359695435D-06 1.988251111470D-03 1.199357211590D-05 5.153668554306D+03
    2.520000000000D+05-4.656612873077D-08 1.738126543947D-01-3.539025783539D-08
    9.528411437383D-01 1.410937500000D+02-3.134344416769D+00-7.710321165825D-09
   -2.650110387735D-10 1.000000000000D+00 2.214000000000D+03 0.000000000000D+00
    2.000000000000D+00 0.000000000000D+00-7.916241884232D-09 7.740000000000D+02
    2.448180000000D+05 4.000000000000D+00
 6 22  6 14 22  0  0.0 3.438205458224D-04 1.557509676786D-11 0.000000000000D+00
    6.500000000000D+01-1.331250000000D+02 4.181245594234D-09-1.863018562384D+00
   -6.807968020439D-06 2.487143268809D-03 1.225620508194D-06 5.153745994568D+03
    2.520000000000D+05-8.940696716309D-08 2.236072124511D+00 7.264316082001D-08
    9.872001754784D-01 3.735000000000D+02-8.534345728841D-01-8.173197589343D-09
   -2.135803250493D-10 1.000000000000D+00 2.214000000000D+03 0.000000000000D+00
    2.000000000000D+00 0.000000000000D+00 3.725290298462D-09 6.500000000000D+01
    2.448180000000D+05 4.000000000000D+00
12 22  6 14 22  0  0.0-2.311877906322D-04-5.911715561524D-12 0.000000000000D+00
    3.800000000000D+01 1.242500000000D+02 3.684082028233D-09 2.912630831519D+00
    6.480142474174D-06 8.597567095421D-03 1.146271824837D-05 5.153790941238D+03
    2.520000000000D+05 3.539025783539D-08 2.069658247059D-01 6.705522537231D-08
    9.694529632758D-01 1.597812500000D+02 1.304247323342D+00-7.339234279995D-09
   -1.885792836555D-10 1.000000000000D+00 2.214000000000D+03 0.000000000000D+00
    2.000000000000D+00 0.000000000000D+00-1.257285475731D-08 3.800000000000D+01
    2.448180000000D+05 4.000000000000D+00
 5 22  6 14 22  0  0.0-8.554570376873D-05-1.364242052659D-12 0.000000000000D+00
    7.700000000000D+01-1.174687500000D+02 4.386254133662D-09 5.517346923188D-01
   -5.859881639481D-06 6.030509131961D-03 1.065805554390D-05 5.153741773605D+03
    2.520000000000D+05 1.303851604462D-08-3.047289987402D+00 5.774199962616D-08
    9.615397336352D-01 1.766250000000D+02 1.038069304210D+00-7.862827518327D-09
    1.992940156814D-10 1.000000000000D+00 2.214000000000D+03 0.000000000000D+00
    2.000000000000D+00 0.000000000000D+00-1.117587089539D-08 7.700000000000D+01
    2.448180000000D+05 4.000000000000D+00
 7 22  6 14 21 59 44.0 3.217346966267D-04-5.684341886081D-13 0.000000000000D+00
    7.000000000000D+00-1.403125000000D+01 4.843416033433D-09-2.750276142121D+00
   -8.419156074524D-07 1.622470736038D-02 7.126480340958D-06 5.153648790359D+03
    2.519840000000D+05 1.508742570877D-07-9.059484867452D-01-2.011656761169D-07
    9.504956384043D-01 2.341250000000D+02-2.260358858482D+00-7.764609141423D-09
   -6.003821511836D-10 1.000000000000D+00 2.214000000000D+03 0.000000000000D+00
    2.000000000000D+00 0.000000000000D+00-1.117587089539D-08 7.000000000000D+00
    2.448180000000D+05 4.000000000000D+00
24 22  6 14 22  0  0.0 2.206382341683D-04-8.412825991400D-12 0.000000000000D+00
    1.300000000000D+01-2.206250000000D+01 5.338079495295D-09-1.771905219993D+00
   -1.102685928345D-06 1.254691381473D-02 5.980953574181D-06 5.153672735214D+03
    2.520000000000D+05 1.750886440277D-07-9.907114421939D-01-1.620501279831D-07
    9.339286251217D-01 2.497812500000D+02 8.177064268349D-01-8.141767708734D-09
   -5.257361847366D-10 1.000000000000D+00 2.214000000000D+03 0.000000000000D+00
    2.000000000000D+00 0.000000000000D+00 2.793967723846D-09 1.300000000000D+01
    2.448180000000D+05 4.000000000000D+00
 1 22  6 14 22  0  0.0 3.412482328713D-04-7.844391802792D-12 0.000000000000D+00
    6.900000000000D+01-1.528437500000D+02 4.044097024302D-09-2.091209450033D+00
   -7.968395948410D-06 1.200659363531D-02 1.510605216026D-06 5.153669368744D+03
    2.520000000000D+05 1.527369022369D-07 2.244351933627D+00 3.725290298462D-09
    9.878721800644D-01 3.586562500000D+02 9.206306705228D-01-8.035691861678D-09
   -9.428964182777D-11 1.000000000000D+00 2.214000000000D+03 0.000000000000D+00
    2.000000000000D+00 0.000000000000D+00 5.122274160385D-09 6.900000000000D+01
    2.448180000000D+05 4.000000000000D+00
